STARLINK-31859          
1 59848U 24097P   26068.53918534 -.00000828  00000+0 -20568-4 0  9990
2 59848  43.0029 268.2948 0001242 243.0157 117.0568 15.27571299101978
TANSTAAFL-2             
1 62378U 24247B   26067.20753490  .00013897  00000+0  50872-3 0  9998
2 62378  44.9880 125.0934 0003072 298.8909  61.1666 15.28016845 67506
